NORAD_CAT_ID,OBJECT_NAME,OBJECT_TYPE,EPOCH,MEAN_MOTION,ECCENTRICITY,INCLINATION,RA_OF_ASC_NODE,ARG_OF_PERICENTER,MEAN_ANOMALY,BSTAR,MEAN_MOTION_DOT,MEAN_MOTION_DDOT,TLE_LINE0,TLE_LINE1,TLE_LINE2,SEMIMAJOR_AXIS,PERIOD,APOGEE,PERIGEE,DECAYED
51891.0,STARLINK-3549,PAYLOAD,2024-04-23 05:24:54,15.08848746,0.0001721,53.2173,196.2907,77.1885,282.93,0.00011693,1.574e-05,0.0,0 STARLINK-3549,1 51891U 22022AR  24114.22562750  .00001574  00000-0  11693-3 0  9993,2 51891  53.2173 196.2907 0001721  77.1885 282.9300 15.08848746119813,6917.854,95.437,540.909,538.528,0.0
51891.0,STARLINK-3549,PAYLOAD,2024-04-23 11:46:26,15.08845727,0.0001549,53.2168,195.0996,85.8375,274.2794,0.00017443,2.49e-05,0.0,0 STARLINK-3549,1 51891U 22022AR  24114.49058724  .00002490  00000-0  17443-3 0  9990,2 51891  53.2168 195.0996 0001549  85.8375 274.2794 15.08845727119851,6917.863,95.437,540.799,538.656,0.0
51891.0,STARLINK-3549,PAYLOAD,2024-04-24 05:15:41,15.08841406,0.0001622,53.2165,191.8291,83.3574,276.7603,0.00019016,2.74e-05,0.0,0 STARLINK-3549,1 51891U 22022AR  24115.21922994  .00002740  00000-0  19016-3 0  9996,2 51891  53.2165 191.8291 0001622  83.3574 276.7603 15.08841406119964,6917.876,95.437,540.863,538.619,0.0
51891.0,STARLINK-3549,PAYLOAD,2024-04-24 11:37:13,15.08850803,0.0001577,53.2162,190.639,88.4814,271.6359,0.00011184,1.493e-05,0.0,0 STARLINK-3549,1 51891U 22022AR  24115.48418519  .00001493  00000-0  11184-3 0  9990,2 51891  53.2162 190.6390 0001577  88.4814 271.6359 15.08850803120000,6917.847,95.437,540.803,538.621,0.0
51891.0,STARLINK-3549,PAYLOAD,2024-04-25 05:06:28,15.08837093,0.0001518,53.2158,187.3694,99.1608,260.9555,0.00013967,1.935e-05,0.0,0 STARLINK-3549,1 51891U 22022AR  24116.21283240  .00001935  00000-0  13967-3 0  9995,2 51891  53.2158 187.3694 0001518  99.1608 260.9555 15.08837093120117,6917.889,95.438,540.804,538.704,0.0
51891.0,STARLINK-3549,PAYLOAD,2024-04-25 11:28:01,15.0883527,0.0001602,53.2158,186.1775,105.4833,254.6336,4.04e-05,3.55e-06,0.0,0 STARLINK-3549,1 51891U 22022AR  24116.47779289  .00000355  00000-0  40400-4 0  9994,2 51891  53.2158 186.1775 0001602 105.4833 254.6336 15.08835270120155,6917.895,95.438,540.868,538.652,0.0
51891.0,STARLINK-3549,PAYLOAD,2024-04-26 09:43:24,15.08848107,0.0001534,53.2159,182.0155,96.6509,263.4658,0.00015584,2.194e-05,0.0,0 STARLINK-3549,1 51891U 22022AR  24117.40514888  .00002194  00000-0  15584-3 0  9997,2 51891  53.2159 182.0155 0001534  96.6509 263.4658 15.08848107120291,6917.856,95.437,540.782,538.659,0.0
51891.0,STARLINK-3549,PAYLOAD,2024-04-27 12:44:57,15.08854307,0.0001701,53.217,176.9621,111.8189,248.2984,0.00027713,4.127e-05,0.0,0 STARLINK-3549,1 51891U 22022AR  24118.53122148  .00004127  00000-0  27713-3 0  9991,2 51891  53.2170 176.9621 0001701 111.8189 248.2984 15.08854307120465,6917.837,95.437,540.878,538.525,0.0
51891.0,STARLINK-3549,PAYLOAD,2024-04-27 20:41:53,15.08843984,0.0001599,53.2164,175.4718,82.7982,277.3192,9.2046e-05,1.177e-05,0.0,0 STARLINK-3549,1 51891U 22022AR  24118.86242657  .00001177  00000-0  92046-4 0  9999,2 51891  53.2164 175.4718 0001599  82.7982 277.3192 15.08843984120510,6917.868,95.437,540.839,538.627,0.0
51891.0,STARLINK-3549,PAYLOAD,2024-04-28 12:35:46,15.08821628,0.0001571,53.2162,172.5004,90.4491,269.6681,-0.0002819,-4.769e-05,0.0,0 STARLINK-3549,1 51891U 22022AR  24119.52484213 -.00004769  00000-0 -28190-3 0  9999,2 51891  53.2162 172.5004 0001571  90.4491 269.6681 15.08821628120614,6917.937,95.439,540.888,538.715,0.0
51891.0,STARLINK-3549,PAYLOAD,2024-04-28 14:11:09,15.08822781,0.0001586,53.2158,172.2013,85.5656,274.5517,-0.0002585,-4.398e-05,0.0,0 STARLINK-3549,1 51891U 22022AR  24119.59108212 -.00004398  00000-0 -25850-3 0  9996,2 51891  53.2158 172.2013 0001586  85.5656 274.5517 15.08822781120625,6917.933,95.439,540.895,538.701,0.0
51891.0,STARLINK-3549,PAYLOAD,2024-04-28 20:32:42,15.08826897,0.0001497,53.2161,171.0127,88.8824,271.2339,-0.00011714,-2.151e-05,0.0,0 STARLINK-3549,1 51891U 22022AR  24119.85604198 -.00002151  00000-0 -11714-3 0  9998,2 51891  53.2161 171.0127 0001497  88.8824 271.2339 15.08826897120668,6917.92,95.438,540.821,538.75,0.0
51891.0,STARLINK-3549,PAYLOAD,2024-04-29 02:54:14,15.08828495,0.0001426,53.2158,169.8226,86.9921,273.1234,-3.9572e-05,-9.17e-06,0.0,0 STARLINK-3549,1 51891U 22022AR  24120.12100321 -.00000917  00000-0 -39572-4 0  9990,2 51891  53.2158 169.8226 0001426  86.9921 273.1234 15.08828495120704,6917.916,95.438,540.767,538.794,0.0
51891.0,STARLINK-3549,PAYLOAD,2024-04-29 10:51:10,15.08840114,0.0001379,53.2157,168.3371,89.5398,270.5752,4.5149e-05,4.31e-06,0.0,0 STARLINK-3549,1 51891U 22022AR  24120.45219943  .00000431  00000-0  45149-4 0  9993,2 51891  53.2157 168.3371 0001379  89.5398 270.5752 15.08840114120755,6917.88,95.438,540.699,538.791,0.0
51891.0,STARLINK-3549,PAYLOAD,2024-04-29 20:23:29,15.08842466,0.0001359,53.2152,166.5529,84.6582,275.4565,0.00035009,5.289e-05,0.0,0 STARLINK-3549,1 51891U 22022AR  24120.84964197  .00005289  00000-0  35009-3 0  9993,2 51891  53.2152 166.5529 0001359  84.6582 275.4565 15.08842466120819,6917.873,95.437,540.678,538.798,0.0
51891.0,STARLINK-3549,PAYLOAD,2024-04-30 09:06:33,15.08861834,0.0001367,53.2144,164.1736,82.2449,277.8699,0.00072546,0.00011283,0.0,0 STARLINK-3549,1 51891U 22022AR  24121.37955778  .00011283  00000-0  72546-3 0  9995,2 51891  53.2144 164.1736 0001367  82.2449 277.8699 15.08861834120891,6917.814,95.436,540.624,538.733,0.0
51891.0,STARLINK-3549,PAYLOAD,2024-05-01 02:35:47,15.0885454,0.0001502,53.2141,160.9031,89.0508,271.0657,0.0003183,4.783e-05,0.0,0 STARLINK-3549,1 51891U 22022AR  24122.10819332  .00004783  00000-0  31830-3 0  9990,2 51891  53.2141 160.9031 0001502  89.0508 271.0657 15.08854540121002,6917.836,95.437,540.74,538.662,0.0
51891.0,STARLINK-3549,PAYLOAD,2024-05-01 08:57:20,15.08851128,0.0001413,53.2147,159.714,79.6921,280.423,0.00013714,1.896e-05,0.0,0 STARLINK-3549,1 51891U 22022AR  24122.37315310  .00001896  00000-0  13714-3 0  9999,2 51891  53.2147 159.7140 0001413  79.6921 280.4230 15.08851128121044,6917.846,95.437,540.689,538.734,0.0
51891.0,STARLINK-3549,PAYLOAD,2024-05-01 20:05:02,15.08846444,0.0001396,53.2144,157.633,76.4872,283.6275,4.4459e-05,4.2e-06,0.0,0 STARLINK-3549,1 51891U 22022AR  24122.83683298  .00000420  00000-0  44459-4 0  9996,2 51891  53.2144 157.6330 0001396  76.4872 283.6275 15.08846444121116,6917.861,95.437,540.691,538.76,0.0
51891.0,STARLINK-3549,PAYLOAD,2024-05-02 05:37:21,15.08836886,0.0001953,53.2137,155.8456,99.9564,260.1648,-0.00010998,-2.038e-05,0.0,0 STARLINK-3549,1 51891U 22022AR  24123.23427890 -.00002038  00000-0 -10998-3 0  9994,2 51891  53.2137 155.8456 0001953  99.9564 260.1648 15.08836886121173,6917.89,95.438,541.106,538.404,0.0
51891.0,STARLINK-3549,PAYLOAD,2024-05-02 08:48:08,15.08829691,0.0001388,53.2145,155.2533,86.3158,273.7993,-0.00020058,-3.478e-05,0.0,0 STARLINK-3549,1 51891U 22022AR  24123.36676393 -.00003478  00000-0 -20058-3 0  9999,2 51891  53.2145 155.2533 0001388  86.3158 273.7993 15.08829691121194,6917.912,95.438,540.737,538.817,0.0
51891.0,STARLINK-3549,PAYLOAD,2024-05-03 08:38:55,15.08835741,0.000148,53.2148,150.7923,89.6909,270.4253,0.00010399,1.367e-05,0.0,0 STARLINK-3549,1 51891U 22022AR  24124.36036839  .00001367  00000-0  10399-3 0  9995,2 51891  53.2148 150.7923 0001480  89.6909 270.4253 15.08835741121346,6917.893,95.438,540.782,538.735,0.0
51891.0,STARLINK-3549,PAYLOAD,2024-05-03 18:11:14,15.08843272,0.000153,53.2153,149.0079,94.0151,266.1016,9.9374e-05,1.294e-05,0.0,0 STARLINK-3549,1 51891U 22022AR  24124.75780688  .00001294  00000-0  99374-4 0  9996,2 51891  53.2153 149.0079 0001530  94.0151 266.1016 15.08843272121404,6917.87,95.437,540.794,538.677,0.0
51891.0,STARLINK-3549,PAYLOAD,2024-05-04 11:40:29,15.08853248,0.0001586,53.2159,145.7369,91.5945,268.5229,0.00045197,6.915e-05,0.0,0 STARLINK-3549,1 51891U 22022AR  24125.48644698  .00006915  00000-0  45197-3 0  9995,2 51891  53.2159 145.7369 0001586  91.5945 268.5229 15.08853248121517,6917.84,95.437,540.802,538.608,0.0
51891.0,STARLINK-3549,PAYLOAD,2024-05-05 05:09:43,15.08845843,0.0001664,53.2165,142.4657,94.0266,266.0916,7.4026e-05,8.9e-06,0.0,0 STARLINK-3549,1 51891U 22022AR  24126.21508556  .00000890  00000-0  74026-4 0  9999,2 51891  53.2165 142.4657 0001664  94.0266 266.0916 15.08845843121629,6917.863,95.437,540.879,538.576,0.0
51891.0,STARLINK-3549,PAYLOAD,2024-05-05 11:31:15,15.08844786,0.0001525,53.2154,141.2761,90.4966,269.6201,8.2859e-05,1.031e-05,0.0,0 STARLINK-3549,1 51891U 22022AR  24126.48004612  .00001031  00000-0  82859-4 0  9993,2 51891  53.2154 141.2761 0001525  90.4966 269.6201 15.08844786121668,6917.866,95.437,540.786,538.676,0.0
51891.0,STARLINK-3549,PAYLOAD,2024-05-06 09:46:39,15.08854261,0.0001522,53.2159,137.1129,90.5169,269.5998,0.00016703,2.372e-05,0.0,0 STARLINK-3549,1 51891U 22022AR  24127.40739840  .00002372  00000-0  16703-3 0  9997,2 51891  53.2159 137.1129 0001522  90.5169 269.5998 15.08854261121805,6917.837,95.437,540.755,538.649,0.0
51891.0,STARLINK-3549,PAYLOAD,2024-05-06 17:43:34,15.08850583,0.0001547,53.2163,135.6261,92.166,267.9509,0.0001424,1.98e-05,0.0,0 STARLINK-3549,1 51891U 22022AR  24127.73859902  .00001980  00000-0  14240-3 0  9993,2 51891  53.2163 135.6261 0001547  92.1660 267.9509 15.08850583121859,6917.848,95.437,540.783,538.643,0.0
51891.0,STARLINK-3549,PAYLOAD,2024-05-07 04:51:16,15.08849831,0.0001492,53.2157,133.5444,93.0567,267.0596,0.00016454,2.332e-05,0.0,0 STARLINK-3549,1 51891U 22022AR  24128.20227749  .00002332  00000-0  16454-3 0  9995,2 51891  53.2157 133.5444 0001492  93.0567 267.0596 15.08849831121926,6917.85,95.437,540.747,538.683,0.0
51891.0,STARLINK-3549,PAYLOAD,2024-05-07 08:02:02,15.08851182,0.0001457,53.2155,132.9497,93.4172,266.6987,0.00017474,2.495e-05,0.0,0 STARLINK-3549,1 51891U 22022AR  24128.33475605  .00002495  00000-0  17474-3 0  9998,2 51891  53.2155 132.9497 0001457  93.4172 266.6987 15.08851182121945,6917.846,95.437,540.719,538.703,0.0
